GLOBALSTAR M024         
1 25883U 99043A   25364.32997635 -.00000084  00000+0 -67287-3 0  9991
2 25883  52.0031 298.0559 0002105  51.0090 119.6650 11.10165469136642
GLOBALSTAR M027         
1 25884U 99043B   25364.36482517 -.00000068  00000+0 -18783-3 0  9993
2 25884  52.0241  21.5157 0021173 307.8392  52.0485 11.04372752162915
GLOBALSTAR M054         
1 25885U 99043C   25364.30919620 -.00000068  00000+0  91056-4 0  9992
2 25885  52.0130 116.0237 0005672 148.4258 237.9419 11.39225057141403
GLOBALSTAR M053         
1 25886U 99043D   25364.49050676 -.00000069  00000+0 -28262-6 0  9993
2 25886  51.9996  73.5769 0003534  68.0712 305.1822 11.27668977141591
GLOBALSTAR M058         
1 25907U 99049A   25364.16372213 -.00000084  00000+0  11481-4 0  9990
2 25907  51.9964 305.8630 0001758 304.2261  55.8407 11.93206113564936
GLOBALSTAR M050         
1 25908U 99049B   25364.59555139 -.00000054  00000+0  38846-3 0  9998
2 25908  52.0009 297.7123 0009746  62.0287 109.3964 12.07463281171919
GLOBALSTAR M033         
1 25909U 99049C   25364.60468462 -.00000093  00000+0 -13818-4 0  9990
2 25909  51.9887 155.9513 0013259 311.0753  48.8948 12.20295530559722
GLOBALSTAR M055         
1 25910U 99049D   25364.59671588 -.00000060  00000+0  29626-3 0  9991
2 25910  51.9997 157.1558 0007325 170.2948 189.8046 12.29438811192444
